{
  "type": "FeatureCollection",
  "features": [
    {
      "type": "Feature",
      "properties": {
        "norad_id": 44709,
        "name": "BEIDOU-3 IGSO-3 (C40)",
        "group": "beidou",
        "lat": -51.883611114113236,
        "lon": 165.41842634831139,
        "alt_km": 35710.949644286346,
        "timestamp": "2025-12-13T22:39:29.975349+00:00",
        "meta_object_name": "BEIDOU-3 IGSO-3 (C40)",
        "meta_object_id": "2019-073A",
        "meta_epoch": "2025-11-20T07:11:22.740000",
        "meta_mean_motion": 1.00250097,
        "meta_eccentricity": 0.0044538,
        "meta_inclination": 55.163,
        "meta_ra_of_asc_node": 283.159,
        "meta_arg_of_pericenter": 191.5856,
        "meta_mean_anomaly": 168.2409,
        "meta_ephemeris_type": 0,
        "meta_classification_type": "U",
        "meta_norad_cat_id": 44709,
        "meta_element_set_no": 999,
        "meta_rev_at_epoch": 2236,
        "meta_bstar": 0,
        "meta_mean_motion_dot": -2.06e-06,
        "meta_mean_motion_ddot": 0,
        "tle_line1": "1 44709U 19073A   25324.29956875 -.00000206  00000+0  00000+0 0  9998",
        "tle_line2": "2 44709  55.1630 283.1590 0044538 191.5856 168.2409  1.00250097 22360"
      },
      "geometry": {
        "type": "Point",
        "coordinates": [
          165.41842634831139,
          -51.883611114113236
        ]
      }
    },
    {
      "type": "Feature",
      "properties": {
        "norad_id": 44793,
        "name": "BEIDOU-3 M22 (C44)",
        "group": "beidou",
        "lat": 51.34706610908221,
        "lon": 11.121371678148693,
        "alt_km": 21512.00378248991,
        "timestamp": "2025-12-13T22:39:29.975364+00:00",
        "meta_object_name": "BEIDOU-3 M22 (C44)",
        "meta_object_id": "2019-078A",
        "meta_epoch": "2025-12-12T05:19:54.790752",
        "meta_mean_motion": 1.86231761,
        "meta_eccentricity": 0.00056767,
        "meta_inclination": 54.1087,
        "meta_ra_of_asc_node": 306.4039,
        "meta_arg_of_pericenter": 23.3376,
        "meta_mean_anomaly": 336.6791,
        "meta_ephemeris_type": 0,
        "meta_classification_type": "U",
        "meta_norad_cat_id": 44793,
        "meta_element_set_no": 999,
        "meta_rev_at_epoch": 4116,
        "meta_bstar": 0,
        "meta_mean_motion_dot": -9.3e-07,
        "meta_mean_motion_ddot": 0,
        "tle_line1": "1 44793U 19078A   25346.22216193 -.00000093  00000+0  00000+0 0  9999",
        "tle_line2": "2 44793  54.1087 306.4039 0005676  23.3376 336.6791  1.86231761 41169"
      },
      "geometry": {
        "type": "Point",
        "coordinates": [
          11.121371678148693,
          51.34706610908221
        ]
      }
    },
    {
      "type": "Feature",
      "properties": {
        "norad_id": 44794,
        "name": "BEIDOU-3 M21 (C43)",
        "group": "beidou",
        "lat": -14.37637683852668,
        "lon": -64.41068534035178,
        "alt_km": 21520.924831816632,
        "timestamp": "2025-12-13T22:39:29.975375+00:00",
        "meta_object_name": "BEIDOU-3 M21 (C43)",
        "meta_object_id": "2019-078B",
        "meta_epoch": "2025-12-12T21:31:22.420992",
        "meta_mean_motion": 1.86227428,
        "meta_eccentricity": 0.00038849,
        "meta_inclination": 54.0814,
        "meta_ra_of_asc_node": 306.3454,
        "meta_arg_of_pericenter": 10.3666,
        "meta_mean_anomaly": 349.6317,
        "meta_ephemeris_type": 0,
        "meta_classification_type": "U",
        "meta_norad_cat_id": 44794,
        "meta_element_set_no": 999,
        "meta_rev_at_epoch": 4118,
        "meta_bstar": 0,
        "meta_mean_motion_dot": -9.6e-07,
        "meta_mean_motion_ddot": 0,
        "tle_line1": "1 44794U 19078B   25346.89678728 -.00000096  00000+0  00000+0 0  9992",
        "tle_line2": "2 44794  54.0814 306.3454 0003884  10.3666 349.6317  1.86227428 41189"
      },
      "geometry": {
        "type": "Point",
        "coordinates": [
          -64.41068534035178,
          -14.37637683852668
        ]
      }
    },
    {
      "type": "Feature",
      "properties": {
        "norad_id": 44864,
        "name": "BEIDOU-3 M19 (C41)",
        "group": "beidou",
        "lat": 1.8620446048927861,
        "lon": -112.30937596428282,
        "alt_km": 21542.97877071823,
        "timestamp": "2025-12-13T22:39:29.975386+00:00",
        "meta_object_name": "BEIDOU-3 M19 (C41)",
        "meta_object_id": "2019-090A",
        "meta_epoch": "2025-12-10T23:47:39.658272",
        "meta_mean_motion": 1.86231263,
        "meta_eccentricity": 0.0017877,
        "meta_inclination": 56.392,
        "meta_ra_of_asc_node": 69.0187,
        "meta_arg_of_pericenter": 285.2046,
        "meta_mean_anomaly": 73.1126,
        "meta_ephemeris_type": 0,
        "meta_classification_type": "U",
        "meta_norad_cat_id": 44864,
        "meta_element_set_no": 999,
        "meta_rev_at_epoch": 4072,
        "meta_bstar": 0,
        "meta_mean_motion_dot": -6e-07,
        "meta_mean_motion_ddot": 0,
        "tle_line1": "1 44864U 19090A   25344.99143123 -.00000060  00000+0  00000+0 0  9990",
        "tle_line2": "2 44864  56.3920  69.0187 0017877 285.2046  73.1126  1.86231263 40726"
      },
      "geometry": {
        "type": "Point",
        "coordinates": [
          -112.30937596428282,
          1.8620446048927861
        ]
      }
    },
    {
      "type": "Feature",
      "properties": {
        "norad_id": 44865,
        "name": "BEIDOU-3 M20 (C42)",
        "group": "beidou",
        "lat": -56.33146320821003,
        "lon": -25.61398211757307,
        "alt_km": 21498.2641280695,
        "timestamp": "2025-12-13T22:39:29.975397+00:00",
        "meta_object_name": "BEIDOU-3 M20 (C42)",
        "meta_object_id": "2019-090B",
        "meta_epoch": "2025-12-10T20:36:05.507712",
        "meta_mean_motion": 1.86231317,
        "meta_eccentricity": 0.0014897,
        "meta_inclination": 56.3937,
        "meta_ra_of_asc_node": 69.0576,
        "meta_arg_of_pericenter": 298.003,
        "meta_mean_anomaly": 60.7372,
        "meta_ephemeris_type": 0,
        "meta_classification_type": "U",
        "meta_norad_cat_id": 44865,
        "meta_element_set_no": 999,
        "meta_rev_at_epoch": 4070,
        "meta_bstar": 0,
        "meta_mean_motion_dot": -5.8e-07,
        "meta_mean_motion_ddot": 0,
        "tle_line1": "1 44865U 19090B   25344.85839708 -.00000058  00000+0  00000+0 0  9994",
        "tle_line2": "2 44865  56.3937  69.0576 0014897 298.0030  60.7372  1.86231317 40704"
      },
      "geometry": {
        "type": "Point",
        "coordinates": [
          -25.61398211757307,
          -56.33146320821003
        ]
      }
    },
    {
      "type": "Feature",
      "properties": {
        "norad_id": 45344,
        "name": "BEIDOU-3 G2 (C60)",
        "group": "beidou",
        "lat": 2.4742756063499867,
        "lon": 142.77142913210332,
        "alt_km": 35803.776530535186,
        "timestamp": "2025-12-13T22:39:29.975408+00:00",
        "meta_object_name": "BEIDOU-3 G2 (C60)",
        "meta_object_id": "2020-017A",
        "meta_epoch": "2025-12-13T03:33:28.626336",
        "meta_mean_motion": 1.00273014,
        "meta_eccentricity": 0.00044493,
        "meta_inclination": 2.4984,
        "meta_ra_of_asc_node": 43.863,
        "meta_arg_of_pericenter": 267.3368,
        "meta_mean_anomaly": 264.2857,
        "meta_ephemeris_type": 0,
        "meta_classification_type": "U",
        "meta_norad_cat_id": 45344,
        "meta_element_set_no": 999,
        "meta_rev_at_epoch": 2139,
        "meta_bstar": 0,
        "meta_mean_motion_dot": -1.28e-06,
        "meta_mean_motion_ddot": 0,
        "tle_line1": "1 45344U 20017A   25347.14824799 -.00000128  00000+0  00000+0 0  9995",
        "tle_line2": "2 45344   2.4984  43.8630 0004449 267.3368 264.2857  1.00273014 21396"
      },
      "geometry": {
        "type": "Point",
        "coordinates": [
          142.77142913210332,
          2.4742756063499867
        ]
      }
    },
    {
      "type": "Feature",
      "properties": {
        "norad_id": 45807,
        "name": "BEIDOU-3 G3 (C61)",
        "group": "beidou",
        "lat": 1.903141099730941,
        "lon": 173.33455748685114,
        "alt_km": 35809.33207346038,
        "timestamp": "2025-12-13T22:39:29.975420+00:00",
        "meta_object_name": "BEIDOU-3 G3 (C61)",
        "meta_object_id": "2020-040A",
        "meta_epoch": "2025-12-08T17:33:17.532288",
        "meta_mean_motion": 1.00275813,
        "meta_eccentricity": 0.00060306,
        "meta_inclination": 1.9816,
        "meta_ra_of_asc_node": 66.5886,
        "meta_arg_of_pericenter": 306.262,
        "meta_mean_anomaly": 78.7159,
        "meta_ephemeris_type": 0,
        "meta_classification_type": "U",
        "meta_norad_cat_id": 45807,
        "meta_element_set_no": 999,
        "meta_rev_at_epoch": 2016,
        "meta_bstar": 0,
        "meta_mean_motion_dot": -3.52e-06,
        "meta_mean_motion_ddot": 0,
        "tle_line1": "1 45807U 20040A   25342.73145292 -.00000352  00000+0  00000+0 0  9998",
        "tle_line2": "2 45807   1.9816  66.5886 0006030 306.2620  78.7159  1.00275813 20161"
      },
      "geometry": {
        "type": "Point",
        "coordinates": [
          173.33455748685114,
          1.903141099730941
        ]
      }
    }
  ]
}